STARLINK-5594           
1 55742U 23028B   26068.86986295 -.00001335  00000+0 -10407-3 0  9991
2 55742  69.9991 244.1407 0002452 272.6317  87.4561 14.98332681166066
SHIYAN-24C 02           
1 58651U 23206B   26068.89175597  .00002770  00000+0  23935-3 0  9991
2 58651  97.3985  41.8071 0003465  80.6641 279.4974 14.97980163120443
